[{"OBJECT_NAME":"YAOGAN-30 11B","OBJECT_ID":"2021-065C","EPOCH":"2026-03-09T16:31:48.488160","MEAN_MOTION":15.02134262,"ECCENTRICITY":9.601e-5,"INCLINATION":34.9931,"RA_OF_ASC_NODE":159.0081,"ARG_OF_PERICENTER":264.9738,"MEAN_ANOMALY":95.0861,"EPHEMERIS_TYPE":0,"CLASSIFICATION_TYPE":"U","NORAD_CAT_ID":49028,"ELEMENT_SET_NO":999,"REV_AT_EPOCH":25365,"BSTAR":0.00032720228,"MEAN_MOTION_DOT":4.364e-5,"MEAN_MOTION_DDOT":0},{"OBJECT_NAME":"PEGASUS DEB","OBJECT_ID":"1994-029AGJ","EPOCH":"2026-03-09T15:38:30.684192","MEAN_MOTION":14.32744369,"ECCENTRICITY":0.03222105,"INCLINATION":81.8776,"RA_OF_ASC_NODE":39.0531,"ARG_OF_PERICENTER":160.6697,"MEAN_ANOMALY":200.7053,"EPHEMERIS_TYPE":0,"CLASSIFICATION_TYPE":"U","NORAD_CAT_ID":40242,"ELEMENT_SET_NO":999,"REV_AT_EPOCH":58831,"BSTAR":0.00090056076,"MEAN_MOTION_DOT":4.406e-5,"MEAN_MOTION_DDOT":0}]
